*******************************************************************************
JPL/HORIZONS              175 Andromache (A877 TA)         2020-Jun-20 08:34:45
Rec #:     175 (+COV) Soln.date: 2020-May-20_01:00:13   # obs: 3173 (1877-2020)
 
IAU76/J2000 helio. ecliptic osc. elements (au, days, deg., period=Julian yrs):
 
  EPOCH=  2455786.5 ! 2011-Aug-13.00 (TDB)         Residual RMS= .33143
   EC= .2334927675022724   QR= 2.439377978113145   TP= 2455322.3007517601
   OM= 21.35450419979461   W=  320.7378903010796   IN= 3.220282160941317
   A= 3.182459179366422    MA= 80.58686182822466   ADIST= 3.925540380619699
   PER= 5.67744            N= .173604029           ANGMOM= .029839346
   DAN= 2.54827            DDN= 3.67297            L= 342.1367649
   B= -2.0373728           MOID= 1.43199003        TP= 2010-May-05.8007517601
 
Asteroid physical parameters (km, seconds, rotational period in hours):
   GM= n.a.                RAD= 47.266             ROTPER= 8.324
   H= 8.4                  G= .150                 B-V= .706
                           ALBEDO= .094            STYP= Cg
 
ASTEROID comments: 
1: soln ref.= JPL#46, OCC=0
2: source=ORB
*******************************************************************************
 
 
*******************************************************************************
Ephemeris / WWW_USER Sat Jun 20 08:34:45 2020 Pasadena, USA      / Horizons
*******************************************************************************
Target body name: 175 Andromache (A877 TA)        {source: JPL#46}
Center body name: Solar System Barycenter (0)     {source: DE431}
Center-site name: BODY CENTER
*******************************************************************************
Start time      : A.D. 1969-Jun-28 00:00:00.0000 TDB
Stop  time      : A.D. 2071-May-04 00:00:00.0000 TDB
Step-size       : 7200 minutes
*******************************************************************************
Center geodetic : 0.00000000,0.00000000,0.0000000 {E-lon(deg),Lat(deg),Alt(km)}
Center cylindric: 0.00000000,0.00000000,0.0000000 {E-lon(deg),Dxy(km),Dz(km)}
Center radii    : (undefined)                                                  
Small perturbers: Yes                             {source: SB431-N16}
Output units    : AU-D
Output type     : GEOMETRIC cartesian states
Output format   : 2 (position and velocity)
Reference frame : Ecliptic of J2000.0
*******************************************************************************
Initial IAU76/J2000 heliocentric ecliptic osculating elements (au, days, deg.):
  EPOCH=  2455786.5 ! 2011-Aug-13.00 (TDB)         Residual RMS= .33143        
   EC= .2334927675022724   QR= 2.439377978113145   TP= 2455322.3007517601      
   OM= 21.35450419979461   W=  320.7378903010796   IN= 3.220282160941317       
  Equivalent ICRF heliocentric equatorial cartesian coordinates (au, au/d):
   X= 3.616881168041575E-02  Y= 2.895395792686800E+00  Z= 1.438911787446762E+00
  VX=-9.201139693458586E-03 VY= 1.988073809388694E-03 VZ= 1.198813106791248E-03
Asteroid physical parameters (km, seconds, rotational period in hours):        
   GM= n.a.                RAD= 47.266             ROTPER= 8.324               
   H= 8.4                  G= .150                 B-V= .706                   
                           ALBEDO= .094            STYP= Cg                    
*******************************************************************************
            JDTDB,            Calendar Date (TDB),        delta-T,                      X,                      Y,                      Z,                     VX,                     VY,                     VZ,
******************************************************************************************************************************************************************************************************************
$$SOE
2450200.500000000, A.D. 1996-Apr-27 00:00:00.0000,      62.185540, -3.863550272529847E+00,  6.545289282182775E-01,  1.134843838209108E-01, -1.013644814193781E-03, -7.566051818588897E-03, -3.752044596419113E-04,
2450205.500000000, A.D. 1996-May-02 00:00:00.0000,      62.185477, -3.868380318323289E+00,  6.166594627840146E-01,  1.116014051554894E-01, -9.183366744428496E-04, -7.581581431395066E-03, -3.779797550750011E-04,
2450210.500000000, A.D. 1996-May-07 00:00:00.0000,      62.185403, -3.872733273723830E+00,  5.787146453274981E-01,  1.097046589555860E-01, -8.228092045589022E-04, -7.596192185964841E-03, -3.807114390224856E-04,
2450215.500000000, A.D. 1996-May-12 00:00:00.0000,      62.185319, -3.876608050297825E+00,  5.406990768713413E-01,  1.077943638006053E-01, -7.270656922855262E-04, -7.609881367988445E-03, -3.833993015311143E-04,
2450220.500000000, A.D. 1996-May-17 00:00:00.0000,      62.185228, -3.880003576067131E+00,  5.026173723364764E-01,  1.058707393372546E-01, -6.311094326336538E-04, -7.622646132302318E-03, -3.860431256134135E-04,
2450225.500000000, A.D. 1996-May-22 00:00:00.0000,      62.185128, -3.882918795553799E+00,  4.644741611986847E-01,  1.039340063150128E-01, -5.349437312332599E-04, -7.634483501970453E-03, -3.886426871281869E-04,
2450230.500000000, A.D. 1996-May-27 00:00:00.0000,      62.185019, -3.885352669841697E+00,  4.262740881499308E-01,  1.019843866222011E-01, -4.385719077565000E-04, -7.645390367282092E-03, -3.911977546593375E-04,
2450235.500000000, A.D. 1996-Jun-01 00:00:00.0000,      62.184901, -3.887304176655348E+00,  3.880218137648798E-01,  1.000221033226643E-01, -3.419972993688803E-04, -7.655363484685898E-03, -3.937080893928185E-04,
2450240.500000000, A.D. 1996-Jun-06 00:00:00.0000,      62.184777, -3.888772310456052E+00,  3.497220151728611E-01,  9.804738069307183E-02, -2.452232641952802E-04, -7.664399475679907E-03, -3.961734449920091E-04,
2450245.500000000, A.D. 1996-Jun-11 00:00:00.0000,      62.184648, -3.889756082555375E+00,  3.113793867354547E-01,  9.606044426084480E-02, -1.482531847967360E-04, -7.672494825674745E-03, -3.985935674716801E-04,
2450250.500000000, A.D. 1996-Jun-16 00:00:00.0000,      62.184516, -3.890254521246044E+00,  2.729986407298072E-01,  9.406152084271731E-02, -5.109047166079896E-05, -7.679645882839913E-03, -4.009681950704803E-04,
2450255.500000000, A.D. 1996-Jun-21 00:00:00.0000,      62.184381, -3.890266671950348E+00,  2.345845080377449E-01,  9.205083858393953E-02,  4.626143328992660E-05, -7.685848856938550E-03, -4.032970581216566E-04,
2450260.500000000, A.D. 1996-Jun-26 00:00:00.0000,      62.184241, -3.889791597386116E+00,  1.961417388407399E-01,  9.002862699813240E-02,  1.437990531734389E-04, -7.691099818153883E-03, -4.055798789215202E-04,
2450265.500000000, A.D. 1996-Jul-01 00:00:00.0000,      62.184099, -3.888828377750355E+00,  1.576751033207517E-01,  8.799511700780592E-02,  2.415188726115744E-04, -7.695394695911347E-03, -4.078163715955937E-04,
2450270.500000000, A.D. 1996-Jul-06 00:00:00.0000,      62.183955, -3.887376110920560E+00,  1.191893923669257E-01,  8.595054098555141E-02,  3.394173341949701E-04, -7.698729277721373E-03, -4.100062419633259E-04,
2450275.500000000, A.D. 1996-Jul-11 00:00:00.0000,      62.183814, -3.885433912673814E+00,  8.068941828796161E-02,  8.389513279590571E-02,  4.374908348880222E-04, -7.701099208074759E-03, -4.121491874056655E-04,
2450280.500000000, A.D. 1996-Jul-16 00:00:00.0000,      62.183675, -3.883000916924265E+00,  4.218001552986074E-02,  8.182912783786177E-02,  5.357357222506553E-04, -7.702499987379078E-03, -4.142448967380227E-04,
2450285.500000000, A.D. 1996-Jul-21 00:00:00.0000,      62.183538, -3.880076275980023E+00,  3.666041399132184E-03,  7.975276308801826E-02,  6.341482904712180E-04, -7.702926970824537E-03, -4.162930500801647E-04,
2450290.500000000, A.D. 1996-Jul-26 00:00:00.0000,      62.183403, -3.876659160820003E+00, -3.484762320803656E-02,  7.766627714440763E-02,  7.327247763794269E-04, -7.702375367136029E-03, -4.182933187141582E-04,
2450295.500000000, A.D. 1996-Jul-31 00:00:00.0000,      62.183271, -3.872748761390510E+00, -7.335607307025922E-02,  7.556991027106046E-02,  8.314613555477378E-04, -7.700840237301050E-03, -4.202453649332159E-04,
2450300.500000000, A.D. 1996-Aug-05 00:00:00.0000,      62.183144, -3.868344286921208E+00, -1.118543778992150E-01,  7.346390444332863E-02,  9.303541384033866E-04, -7.698316493364036E-03, -4.221488418908224E-04,
2450305.500000000, A.D. 1996-Aug-10 00:00:00.0000,      62.183025, -3.863444966260782E+00, -1.503375815920669E-01,  7.134850339395199E-02,  1.029399166233409E-03, -7.694798897287540E-03, -4.240033934542463E-04,
2450310.500000000, A.D. 1996-Aug-15 00:00:00.0000,      62.182913, -3.858050048232943E+00, -1.888007014782598E-01,  6.922395265984968E-02,  1.128592407036794E-03, -7.690282059835163E-03, -4.258086540604004E-04,
2450315.500000000, A.D. 1996-Aug-20 00:00:00.0000,      62.182809, -3.852158802013530E+00, -2.272387275607109E-01,  6.709049962963459E-02,  1.227929751238681E-03, -7.684760439442322E-03, -4.275642485704569E-04,
2450320.500000000, A.D. 1996-Aug-25 00:00:00.0000,      62.182712, -3.845770517529333E+00, -2.656466217513043E-01,  6.494839359186180E-02,  1.327407007292775E-03, -7.678228341067614E-03, -4.292697921213207E-04,
2450325.500000000, A.D. 1996-Aug-30 00:00:00.0000,      62.182623, -3.838884505879142E+00, -3.040193171006079E-01,  6.279788578402835E-02,  1.427019897187549E-03, -7.670679915031922E-03, -4.309248899736154E-04,
2450330.500000000, A.D. 1996-Sep-04 00:00:00.0000,      62.182544, -3.831500099777513E+00, -3.423517170217755E-01,  6.063922944234165E-02,  1.526764051857887E-03, -7.662109155855143E-03, -4.325291373566564E-04,
2450335.500000000, A.D. 1996-Sep-09 00:00:00.0000,      62.182477, -3.823616654021696E+00, -3.806386945086396E-01,  5.847267985226850E-02,  1.626635006498833E-03, -7.652509901095998E-03, -4.340821193107109E-04,
